PHISAT 2                
1 60470U 24149C   26068.78834181  .00008925  00000+0  31421-3 0  9996
2 60470  97.3806 148.6498 0001175 168.6230 191.5037 15.29548631 86792
STARLINK-35878          
1 67178U 25303R   26068.02339645  .00033645  00000+0  12258-2 0  9996
2 67178  43.0020 314.4400 0002915 246.4167 113.6378 15.27598188 12638
